{"type": "FeatureCollection", "features": [ {"type": "Feature", "properties": {"norad_id": 30815, "name": "FENGYUN 1C DEB", "group": "fengyun-1c-debris", "lat": -28.165630937583586, "lon": -29.114765798350078, "alt_km": 652.6995077477732, "timestamp": "2025-12-24T07:45:06.478506+00:00", "meta": {"OBJECT_NAME": "FENGYUN 1C DEB", "OBJECT_ID": "1999-025AUZ", "EPOCH": "2025-12-23T09:52:41.162592", "MEAN_MOTION": 14.74049203, "ECCENTRICITY": 0.00029848, "INCLINATION": 99.3006, "RA_OF_ASC_NODE": 154.8747, "ARG_OF_PERICENTER": 269.0391, "MEAN_ANOMALY": 145.7514, "EPHEMERIS_TYPE": 0, "CLASSIFICATION_TYPE": "U", "NORAD_CAT_ID": 30815, "ELEMENT_SET_NO": 999, "REV_AT_EPOCH": 97937, "BSTAR": 0.0040540881, "MEAN_MOTION_DOT": 0.00026719, "MEAN_MOTION_DDOT": 0}, "tle": {"line1": "1 30815U 99025AUZ 25357.41158753  .00026719  00000+0  40541-2 0  9998", "line2": "2 30815  99.3006 154.8747 0002984 269.0391 145.7514 14.74049203979371"}}, "geometry": {"type": "Point", "coordinates": [-29.114765798350078, -28.165630937583586]}}, {"type": "Feature", "properties": {"norad_id": 30816, "name": "FENGYUN 1C DEB", "group": "fengyun-1c-debris", "lat": 22.03563391758694, "lon": 65.20628247888533, "alt_km": 794.2498809020508, "timestamp": "2025-12-24T07:45:06.478517+00:00", "meta": {"OBJECT_NAME": "FENGYUN 1C DEB", "OBJECT_ID": "1999-025AVA", "EPOCH": "2025-12-23T04:40:31.499328", "MEAN_MOTION": 14.18070336, "ECCENTRICITY": 0.00517035, "INCLINATION": 98.9133, "RA_OF_ASC_NODE": 67.7157, "ARG_OF_PERICENTER": 25.0698, "MEAN_ANOMALY": 1.1219, "EPHEMERIS_TYPE": 0, "CLASSIFICATION_TYPE": "U", "NORAD_CAT_ID": 30816, "ELEMENT_SET_NO": 999, "REV_AT_EPOCH": 96542, "BSTAR": 0.0015269125, "MEAN_MOTION_DOT": 3.129e-05, "MEAN_MOTION_DDOT": 0}, "tle": {"line1": "1 30816U 99025AVA 25357.19480902  .00003129  00000+0  15269-2 0  9997", "line2": "2 30816  98.9133  67.7157 0051703  25.0698   1.1219 14.18070336965425"}}, "geometry": {"type": "Point", "coordinates": [65.20628247888533, 22.03563391758694]}}, {"type": "Feature", "properties": {"norad_id": 30817, "name": "FENGYUN 1C DEB", "group": "fengyun-1c-debris", "lat": 73.25475929420396, "lon": -160.98072753289375, "alt_km": 896.702737895097, "timestamp": "2025-12-24T07:45:06.478533+00:00", "meta": {"OBJECT_NAME": "FENGYUN 1C DEB", "OBJECT_ID": "1999-025AVB", "EPOCH": "2025-12-23T22:40:45.576480", "MEAN_MOTION": 14.00727006, "ECCENTRICITY": 0.00576404, "INCLINATION": 98.7855, "RA_OF_ASC_NODE": 347.7261, "ARG_OF_PERICENTER": 212.9693, "MEAN_ANOMALY": 146.7873, "EPHEMERIS_TYPE": 0, "CLASSIFICATION_TYPE": "U", "NORAD_CAT_ID": 30817, "ELEMENT_SET_NO": 999, "REV_AT_EPOCH": 96066, "BSTAR": 0.00015188764, "MEAN_MOTION_DOT": 1.87e-06, "MEAN_MOTION_DDOT": 0}, "tle": {"line1": "1 30817U 99025AVB 25357.94497195  .00000187  00000+0  15189-3 0  9996", "line2": "2 30817  98.7855 347.7261 0057640 212.9693 146.7873 14.00727006960667"}}, "geometry": {"type": "Point", "coordinates": [-160.98072753289375, 73.25475929420396]}}, {"type": "Feature", "properties": {"norad_id": 30820, "name": "FENGYUN 1C DEB", "group": "fengyun-1c-debris", "lat": 66.55786572093838, "lon": -64.95615684514205, "alt_km": 786.3233956977947, "timestamp": "2025-12-24T07:45:06.478543+00:00", "meta": {"OBJECT_NAME": "FENGYUN 1C DEB", "OBJECT_ID": "1999-025AVE", "EPOCH": "2025-12-23T06:09:02.502144", "MEAN_MOTION": 14.21479107, "ECCENTRICITY": 0.00520288, "INCLINATION": 98.676, "RA_OF_ASC_NODE": 93.3776, "ARG_OF_PERICENTER": 157.8998, "MEAN_ANOMALY": 258.6772, "EPHEMERIS_TYPE": 0, "CLASSIFICATION_TYPE": "U", "NORAD_CAT_ID": 30820, "ELEMENT_SET_NO": 999, "REV_AT_EPOCH": 96573, "BSTAR": 0.0018392724, "MEAN_MOTION_DOT": 4.038e-05, "MEAN_MOTION_DDOT": 0}, "tle": {"line1": "1 30820U 99025AVE 25357.25627896  .00004038  00000+0  18393-2 0  9995", "line2": "2 30820  98.6760  93.3776 0052028 157.8998 258.6772 14.21479107965733"}}, "geometry": {"type": "Point", "coordinates": [-64.95615684514205, 66.55786572093838]}}, {"type": "Feature", "properties": {"norad_id": 30821, "name": "FENGYUN 1C DEB", "group": "fengyun-1c-debris", "lat": -76.9515820056574, "lon": -81.96270004669863, "alt_km": 732.4916689176507, "timestamp": "2025-12-24T07:45:06.478553+00:00", "meta": {"OBJECT_NAME": "FENGYUN 1C DEB", "OBJECT_ID": "1999-025AVF", "EPOCH": "2025-12-22T15:05:10.178592", "MEAN_MOTION": 14.49720433, "ECCENTRICITY": 0.0086666, "INCLINATION": 99.1046, "RA_OF_ASC_NODE": 139.9918, "ARG_OF_PERICENTER": 176.3992, "MEAN_ANOMALY": 245.1641, "EPHEMERIS_TYPE": 0, "CLASSIFICATION_TYPE": "U", "NORAD_CAT_ID": 30821, "ELEMENT_SET_NO": 999, "REV_AT_EPOCH": 98932, "BSTAR": 0.00077555632, "MEAN_MOTION_DOT": 3.078e-05, "MEAN_MOTION_DDOT": 0}, "tle": {"line1": "1 30821U 99025AVF 25356.62859003  .00003078  00000+0  77556-3 0  9993", "line2": "2 30821  99.1046 139.9918 0086666 176.3992 245.1641 14.49720433989325"}}, "geometry": {"type": "Point", "coordinates": [-81.96270004669863, -76.9515820056574]}}, {"type": "Feature", "properties": {"norad_id": 30822, "name": "FENGYUN 1C DEB", "group": "fengyun-1c-debris", "lat": 17.45511240757865, "lon": 23.30423205175167, "alt_km": 885.7783263056035, "timestamp": "2025-12-24T07:45:06.478565+00:00", "meta": {"OBJECT_NAME": "FENGYUN 1C DEB", "OBJECT_ID": "1999-025AVG", "EPOCH": "2025-12-23T01:18:34.797024", "MEAN_MOTION": 14.11355155, "ECCENTRICITY": 0.00732881, "INCLINATION": 98.7342, "RA_OF_ASC_NODE": 24.8408, "ARG_OF_PERICENTER": 255.6989, "MEAN_ANOMALY": 160.2886, "EPHEMERIS_TYPE": 0, "CLASSIFICATION_TYPE": "U", "NORAD_CAT_ID": 30822, "ELEMENT_SET_NO": 999, "REV_AT_EPOCH": 96847, "BSTAR": 0.00030486523, "MEAN_MOTION_DOT": 5.22e-06, "MEAN_MOTION_DDOT": 0}, "tle": {"line1": "1 30822U 99025AVG 25357.05456941  .00000522  00000+0  30487-3 0  9999", "line2": "2 30822  98.7342  24.8408 0073288 255.6989 160.2886 14.11355155968474"}}, "geometry": {"type": "Point", "coordinates": [23.30423205175167, 17.45511240757865]}}, {"type": "Feature", "properties": {"norad_id": 30823, "name": "FENGYUN 1C DEB", "group": "fengyun-1c-debris", "lat": 69.92919108044156, "lon": -16.128890160247757, "alt_km": 822.4183973779836, "timestamp": "2025-12-24T07:45:06.478576+00:00", "meta": {"OBJECT_NAME": "FENGYUN 1C DEB", "OBJECT_ID": "1999-025AVH", "EPOCH": "2025-12-19T21:48:58.565088", "MEAN_MOTION": 14.02564136, "ECCENTRICITY": 0.01342337, "INCLINATION": 98.7634, "RA_OF_ASC_NODE": 134.6515, "ARG_OF_PERICENTER": 64.6202, "MEAN_ANOMALY": 87.319, "EPHEMERIS_TYPE": 0, "CLASSIFICATION_TYPE": "U", "NORAD_CAT_ID": 30823, "ELEMENT_SET_NO": 999, "REV_AT_EPOCH": 96134, "BSTAR": 0.00016735994, "MEAN_MOTION_DOT": 2.38e-06, "MEAN_MOTION_DDOT": 0}, "tle": {"line1": "1 30823U 99025AVH 25353.90901117  .00000238  00000+0  16736-3 0  9995", "line2": "2 30823  98.7634 134.6515 0134233  64.6202  87.3190 14.02564136961349"}}, "geometry": {"type": "Point", "coordinates": [-16.128890160247757, 69.92919108044156]}}, {"type": "Feature", "properties": {"norad_id": 30826, "name": "FENGYUN 1C DEB", "group": "fengyun-1c-debris", "lat": -49.25656108357649, "lon": -154.97533360470405, "alt_km": 529.0820178851427, "timestamp": "2025-12-24T07:45:06.478586+00:00", "meta": {"OBJECT_NAME": "FENGYUN 1C DEB", "OBJECT_ID": "1999-025AVL", "EPOCH": "2025-12-23T19:18:07.056576", "MEAN_MOTION": 14.82333704, "ECCENTRICITY": 0.01446222, "INCLINATION": 98.8662, "RA_OF_ASC_NODE": 194.0104, "ARG_OF_PERICENTER": 321.7478, "MEAN_ANOMALY": 101.9726, "EPHEMERIS_TYPE": 0, "CLASSIFICATION_TYPE": "U", "NORAD_CAT_ID": 30826, "ELEMENT_SET_NO": 999, "REV_AT_EPOCH": 450, "BSTAR": 0.00053635845, "MEAN_MOTION_DOT": 5.075e-05, "MEAN_MOTION_DDOT": 0}, "tle": {"line1": "1 30826U 99025AVL 25357.80424834  .00005075  00000+0  53636-3 0  9991", "line2": "2 30826  98.8662 194.0104 0144622 321.7478 101.9726 14.82333704  4500"}}, "geometry": {"type": "Point", "coordinates": [-154.97533360470405, -49.25656108357649]}}, {"type": "Feature", "properties": {"norad_id": 30827, "name": "FENGYUN 1C DEB", "group": "fengyun-1c-debris", "lat": 52.08062385599356, "lon": -27.45861319878791, "alt_km": 760.8371025864071, "timestamp": "2025-12-24T07:45:06.478598+00:00", "meta": {"OBJECT_NAME": "FENGYUN 1C DEB", "OBJECT_ID": "1999-025AVM", "EPOCH": "2025-12-22T05:24:17.025120", "MEAN_MOTION": 14.37918372, "ECCENTRICITY": 0.00439891, "INCLINATION": 99.0037, "RA_OF_ASC_NODE": 342.0879, "ARG_OF_PERICENTER": 150.3136, "MEAN_ANOMALY": 210.056, "EPHEMERIS_TYPE": 0, "CLASSIFICATION_TYPE": "U", "NORAD_CAT_ID": 30827, "ELEMENT_SET_NO": 999, "REV_AT_EPOCH": 96685, "BSTAR": 0.0026816406, "MEAN_MOTION_DOT": 8.15e-05, "MEAN_MOTION_DDOT": 0}, "tle": {"line1": "1 30827U 99025AVM 25356.22519705  .00008150  00000+0  26816-2 0  9995", "line2": "2 30827  99.0037 342.0879 0043989 150.3136 210.0560 14.37918372966858"}}, "geometry": {"type": "Point", "coordinates": [-27.45861319878791, 52.08062385599356]}}, {"type": "Feature", "properties": {"norad_id": 30828, "name": "FENGYUN 1C DEB", "group": "fengyun-1c-debris", "lat": -81.53362425390526, "lon": -172.44412237494882, "alt_km": 736.1495020490802, "timestamp": "2025-12-24T07:45:06.478610+00:00", "meta": {"OBJECT_NAME": "FENGYUN 1C DEB", "OBJECT_ID": "1999-025AVN", "EPOCH": "2025-12-21T19:04:17.783328", "MEAN_MOTION": 14.77263453, "ECCENTRICITY": 0.02086675, "INCLINATION": 98.3758, "RA_OF_ASC_NODE": 103.1148, "ARG_OF_PERICENTER": 149.8617, "MEAN_ANOMALY": 1.144, "EPHEMERIS_TYPE": 0, "CLASSIFICATION_TYPE": "U", "NORAD_CAT_ID": 30828, "ELEMENT_SET_NO": 999, "REV_AT_EPOCH": 98790, "BSTAR": 0.0013165295, "MEAN_MOTION_DOT": 0.00013375, "MEAN_MOTION_DDOT": 0}, "tle": {"line1": "1 30828U 99025AVN 25355.79465027  .00013375  00000+0  13165-2 0  9992", "line2": "2 30828  98.3758 103.1148 0208667 149.8617   1.1440 14.77263453987901"}}, "geometry": {"type": "Point", "coordinates": [-172.44412237494882, -81.53362425390526]}}]}